#aV2015  4 26  0  0  0.00000000     288 DD+AD WGS84 FIT  NGA
## 1842      0.00000000   300.00000000 57138 0.0000000000000
+   31     1  2  3  4  5  6  7  9 10 11 12 13 14 15 16 17 18
+         19 20 21 22 23 24 25 26 27 28 29 30 31 32  0  0  0
+          0  0  0  0  0  0  0  0  0  0  0  0  0  0  0  0  0
+          0  0  0  0  0  0  0  0  0  0  0  0  0  0  0  0  0
+          0  0  0  0  0  0  0  0  0  0  0  0  0  0  0  0  0
++         2  2  2  2  2  2  2  2  2  2  2  2  2  2  2  2  2
++         2  2  2  2  2  2  2  2  2  2  2  2  2  2  0  0  0
++         0  0  0  0  0  0  0  0  0  0  0  0  0  0  0  0  0
++         0  0  0  0  0  0  0  0  0  0  0  0  0  0  0  0  0
++         0  0  0  0  0  0  0  0  0  0  0  0  0  0  0  0  0
%c cc cc ccc ccc cccc cccc cccc cccc ccccc ccccc ccccc ccccc
%c cc cc ccc ccc cccc cccc cccc cccc ccccc ccccc ccccc ccccc
%f  0.0000000  0.000000000  0.00000000000  0.000000000000000
%f  0.0000000  0.000000000  0.00000000000  0.000000000000000
%i    0    0    0    0      0      0      0      0         0
%i    0    0    0    0      0      0      0      0         0
/*      NGA, ST. LOUIS,MO.                                  
/*   EPHEMERIS COMPUTED FROM  1 DAYS OF DATA                
/*   EPOCHA SMOOTHER                                       
/* CCCCCCCCCCCCCCCCCCCCCCCCCCCCCCCCCCCCCCCCCCCCCCCCCCCCCCCCC
*  2015  4 26  1 20  0.00000000
P  1  14338.318503  -5282.733658  21664.112071     -6.338436                    
V  1   5899.495978  27000.734434   2855.137565      0.004590                    
P  2 -14545.005276 -17548.306963 -13641.633704    562.035997                    
V  2  -1846.180475 -17876.612572  23860.865052      0.023396                    
P  3  22150.898457 -12143.239172   8285.584426    308.714189                    
V  3  -6049.051345   8964.641521  29313.176663      0.122161                    
P  4  16267.280544   5640.089616  19969.318096    -12.507529                    
V  4   4709.453476  25673.639345 -10649.389276     -0.012663                    
P  5 -16542.249575  -4716.052356 -20330.712819   -249.226077                    
V  5  18309.309211 -18076.053442 -10547.519942      0.047289                    
P  6  -6373.949652 -25763.227612  -1171.250659    145.205425                    
V  6   2408.449311  -2039.932248  31722.012779      0.096355                    
P  7   7966.568345 -18946.026312 -16515.555599    457.913315                    
V  7   5774.678270  20572.838173 -21048.319679      0.026648                    
P  9  14461.061667 -10060.092949 -19890.487670   -144.596552                    
V  9  23688.293917   8800.896104  12758.560227     -0.074989                    
P 10   1478.198866 -19244.442144 -18448.998822   -172.385728                    
V 10  18396.938840 -13713.915960  16540.669228     -0.014978                    
P 11  18058.382416    154.676319  18986.714411   -573.977380                    
V 11  11800.179802  22673.972840 -10968.935277     -0.026179                    
P 12 -22295.664335   9026.173515  10914.127264    287.831172                    
V 12   9687.764279 -10327.057006  28302.406310      0.031144                    
P 13 -22774.049965 -13057.610973  -3719.680441   -108.971735                    
V 13   5150.761343   -349.793672 -31674.136901     -0.034068                    
P 14   5376.659096  17060.702432  19918.644194     68.123822                    
V 14 -23232.313665  -8479.739038  13548.121520     -0.028488                    
P 15 -25919.519794  -2548.367706   5914.115156   -245.683164                    
V 15  -6454.308146  -5161.107126 -29734.656267     -0.021878                    
P 16  15490.787859   5360.082239 -21055.362269   -135.164131                    
V 16 -20453.888061  16695.615131 -10470.350861      0.036396                    
P 17  -4448.776852 -16644.593265  20565.698676   -168.142818                    
V 17  24018.395432   8185.424410  11790.966620     -0.018423                    
P 18 -12547.495125  21456.442184   9413.847597    396.731943                    
V 18 -10851.020480   5140.640498 -27938.818755      0.028961                    
P 19  25260.919130   8049.789834   3827.300637   -508.508920                    
V 19   3759.100654   3958.725393 -31146.900275     -0.012334                    
P 20 -12583.695805 -10036.443691 -21335.662921    313.893968                    
V 20  18437.724358 -19408.696230  -1663.555476      0.037458                    
P 21  -5260.764149  21660.189458 -13460.133214   -440.164388                    
V 21  -7335.904679 -17276.138188 -24084.653015     -0.036719                    
P 22  -2209.800981  20070.966523  17398.789943    343.692781                    
V 22 -17564.186105  13194.645199 -17864.310808      0.041460                    
P 23  22891.556834  -2598.385918 -13445.556286   -104.317930                    
V 23  15601.919816   7504.132202  24417.255827     -0.024926                    
P 24 -15250.638007   2115.249012  21610.143780    -47.251009                    
V 24  -6061.443143 -26873.045104  -1501.213548     -0.006385                    
P 25 -19308.091366  18092.292737   -765.361836    -23.183381                    
V 25  -2248.383222  -1208.548191  32230.259454     -0.036043                    
P 26   6758.217798  14126.070617 -21457.781112     23.322879                    
V 26 -20516.079361  17917.871600   5340.305730      0.054710                    
P 27  22506.768838  12340.163241  -7066.828059     67.583138                    
V 27  -9226.168619   -449.993603 -30113.911584      0.026700                    
P 28   8132.813256 -19870.619482  16194.852459    435.544642                    
V 28  16034.530136 -10998.063869 -22497.641201      0.025744                    
P 29 -17092.102622   7248.237962 -18948.723072    606.626647                    
V 29 -22039.225571  -9832.068150  16145.084275      0.024040                    
P 30   1817.501036 -25418.507373  -7392.800874    -67.317352                    
V 30   4076.981627   8924.846315 -29789.824306      0.043590                    
P 31   7484.519293  24884.239270  -4404.271102    317.612849                    
V 31  -1551.562769   6169.974483  31637.842104     -0.010723                    
P 32  19042.015936   1920.089158  18171.500970   -166.826165                    
V 32 -17330.211926  15772.271923  17017.319020      0.095537                    
EOF
